[ {"spaceTrack": {"CCSDS_OMM_VERS": "2.0", "COMMENT": "GENERATED VIA SPACE-TRACK.ORG API", "CREATION_DATE": "2020-03-09 22:46:17", "ORIGINATOR": "18 SPCS", "OBJECT_NAME": "STARLINK-1220", "OBJECT_ID": "2020-012AK", "CENTER_NAME": "EARTH", "REF_FRAME": "TEME", "TIME_SYSTEM": "UTC", "MEAN_ELEMENT_THEORY": "SGP4", "EPOCH": "2020-03-09 22:00:00.999936", "MEAN_MOTION": 15.75746283, "ECCENTRICITY": 0.0027451, "INCLINATION": 53.0024, "RA_OF_ASC_NODE": 162.4808, "ARG_OF_PERICENTER": 118.7601, "MEAN_ANOMALY": 331.9927, "EPHEMERIS_TYPE": 0, "CLASSIFICATION_TYPE": "U", "NORAD_CAT_ID": 45211, "ELEMENT_SET_NO": 999, "REV_AT_EPOCH": 370, "BSTAR": 0.0041594, "MEAN_MOTION_DOT": 0.00723224, "MEAN_MOTION_DDOT": 0, "SEMIMAJOR_AXIS": 6720.645, "PERIOD": 91.385, "APOAPSIS": 360.959, "PERIAPSIS": 324.061, "OBJECT_TYPE": "PAYLOAD", "RCS_SIZE": "LARGE", "COUNTRY_CODE": "US", "LAUNCH_DATE": "2020-02-17", "SITE": "AFETR", "DECAY_DATE": "2020-02-29", "DECAYED": 1, "FILE": 2715913, "GP_ID": 150318730, "TLE_LINE0": "0 STARLINK-1220", "TLE_LINE1": "1 45211U 20012AK  20069.91667824  .00723224  00000-0  41594-2 0  9993", "TLE_LINE2": "2 45211  53.0024 162.4808 0027451 118.7601 331.9927 15.75746283  3703"}, "version": "v1.0", "launch": "5eb87d41ffd86e000604b383", "longitude": null, "latitude": null, "height_km": null, "velocity_kms": null, "id": "5eefa8646527ee0006dcef63"}, {"spaceTrack": {"CCSDS_OMM_VERS": "2.0", "COMMENT": "GENERATED VIA SPACE-TRACK.ORG API", "CREATION_DATE": "2020-08-23 22:46:10", "ORIGINATOR": "18 SPCS", "OBJECT_NAME": "STARLINK-1581", "OBJECT_ID": "2020-055R", "CENTER_NAME": "EARTH", "REF_FRAME": "TEME", "TIME_SYSTEM": "UTC", "MEAN_ELEMENT_THEORY": "SGP4", "EPOCH": "2020-08-23 22:00:00.999936", "MEAN_MOTION": 15.29346486, "ECCENTRICITY": 0.000141, "INCLINATION": 53.0074, "RA_OF_ASC_NODE": 211.5001, "ARG_OF_PERICENTER": 63.8564, "MEAN_ANOMALY": 177.0994, "EPHEMERIS_TYPE": 0, "CLASSIFICATION_TYPE": "U", "NORAD_CAT_ID": 46042, "ELEMENT_SET_NO": 999, "REV_AT_EPOCH": 336, "BSTAR": -0.039779, "MEAN_MOTION_DOT": -0.01053432, "MEAN_MOTION_DDOT": 0, "SEMIMAJOR_AXIS": 6855.901, "PERIOD": 94.157, "APOAPSIS": 478.733, "PERIAPSIS": 476.8, "OBJECT_TYPE": "PAYLOAD", "RCS_SIZE": "LARGE", "COUNTRY_CODE": "US", "LAUNCH_DATE": "2020-08-07", "SITE": "AFETR", "DECAY_DATE": null, "DECAYED": 0, "FILE": 2807297, "GP_ID": 159987307, "TLE_LINE0": "0 STARLINK-1581", "TLE_LINE1": "1 46042U 20055R   20236.91667824 -.01053432  00000-0 -39779-1 0  9990", "TLE_LINE2": "2 46042  53.0074 211.5001 0001410  63.8564 177.0994 15.29346486  3362"}, "version": "v1.0", "launch": "5ed9819a1f30554030d45c29", "longitude": 117.32445704152555, "latitude": -46.7026134202482, "height_km": 495.07665015760267, "velocity_kms": 7.616423523487491, "id": "5f36cb59bd8883000627408d"}, {"spaceTrack": {"CCSDS_OMM_VERS": "2.0", "COMMENT": "GENERATED VIA SPACE-TRACK.ORG API", "CREATION_DATE": "2020-08-23 22:36:09", "ORIGINATOR": "18 SPCS", "OBJECT_NAME": "STARLINK-1541", "OBJECT_ID": "2020-055AB", "CENTER_NAME": "EARTH", "REF_FRAME": "TEME", "TIME_SYSTEM": "UTC", "MEAN_ELEMENT_THEORY": "SGP4", "EPOCH": "2020-08-23 22:00:00.999936", "MEAN_MOTION": 15.62772731, "ECCENTRICITY": 0.0008456, "INCLINATION": 53.0003, "RA_OF_ASC_NODE": 209.8003, "ARG_OF_PERICENTER": 294.2704, "MEAN_ANOMALY": 2.4974, "EPHEMERIS_TYPE": 0, "CLASSIFICATION_TYPE": "U", "NORAD_CAT_ID": 46052, "ELEMENT_SET_NO": 999, "REV_AT_EPOCH": 338, "BSTAR": 0.00043236, "MEAN_MOTION_DOT": 0.00039336, "MEAN_MOTION_DDOT": 0, "SEMIMAJOR_AXIS": 6757.788, "PERIOD": 92.143, "APOAPSIS": 385.368, "PERIAPSIS": 373.939, "OBJECT_TYPE": "PAYLOAD", "RCS_SIZE": "LARGE", "COUNTRY_CODE": "US", "LAUNCH_DATE": "2020-08-07", "SITE": "AFETR", "DECAY_DATE": null, "DECAYED": 0, "FILE": 2807281, "GP_ID": 159986123, "TLE_LINE0": "0 STARLINK-1541", "TLE_LINE1": "1 46052U 20055AB  20236.91667824  .00039336  00000-0  43236-3 0  9990", "TLE_LINE2": "2 46052  53.0003 209.8003 0008456 294.2704   2.4974 15.62772731  3384"}, "version": "v1.0", "launch": "5ed9819a1f30554030d45c29", "longitude": -153.65024741906225, "latitude": -38.50502957561882, "height_km": 386.6257719555215, "velocity_kms": 7.680963532875439, "id": "5f36cb59bd88830006274091"}, {"spaceTrack": {"CCSDS_OMM_VERS": "2.0", "COMMENT": "GENERATED VIA SPACE-TRACK.ORG API", "CREATION_DATE": "2020-08-23 14:56:10", "ORIGINATOR": "18 SPCS", "OBJECT_NAME": "STARLINK-1544", "OBJECT_ID": "2020-055E", "CENTER_NAME": "EARTH", "REF_FRAME": "TEME", "TIME_SYSTEM": "UTC", "MEAN_ELEMENT_THEORY": "SGP4", "EPOCH": "2020-08-23 14:00:01.999872", "MEAN_MOTION": 15.24092308, "ECCENTRICITY": 0.0001384, "INCLINATION": 53.0069, "RA_OF_ASC_NODE": 213.7084, "ARG_OF_PERICENTER": 64.9257, "MEAN_ANOMALY": 183.9941, "EPHEMERIS_TYPE": 0, "CLASSIFICATION_TYPE": "U", "NORAD_CAT_ID": 46031, "ELEMENT_SET_NO": 999, "REV_AT_EPOCH": 330, "BSTAR": -0.047447, "MEAN_MOTION_DOT": -0.01069021, "MEAN_MOTION_DDOT": 0, "SEMIMAJOR_AXIS": 6871.649, "PERIOD": 94.482, "APOAPSIS": 494.465, "PERIAPSIS": 492.563, "OBJECT_TYPE": "PAYLOAD", "RCS_SIZE": "LARGE", "COUNTRY_CODE": "US", "LAUNCH_DATE": "2020-08-07", "SITE": "AFETR", "DECAY_DATE": null, "DECAYED": 0, "FILE": 2807082, "GP_ID": 159941239, "TLE_LINE0": "0 STARLINK-1544", "TLE_LINE1": "1 46031U 20055E   20236.58335648 -.01069021  00000-0 -47447-1 0  9999", "TLE_LINE2": "2 46031  53.0069 213.7084 0001384  64.9257 183.9941 15.24092308  3308"}, "version": "v1.0", "launch": "5ed9819a1f30554030d45c29", "longitude": 173.48585679251346, "latitude": -51.74576011489738, "height_km": 514.9727678983463, "velocity_kms": 7.605543829770425, "id": "5f36cb59bd88830006274090"}, {"spaceTrack": {"CCSDS_OMM_VERS": "2.0", "COMMENT": "GENERATED VIA SPACE-TRACK.ORG API", "CREATION_DATE": "2020-08-23 14:46:10", "ORIGINATOR": "18 SPCS", "OBJECT_NAME": "STARLINK-1530", "OBJECT_ID": "2020-055Y", "CENTER_NAME": "EARTH", "REF_FRAME": "TEME", "TIME_SYSTEM": "UTC", "MEAN_ELEMENT_THEORY": "SGP4", "EPOCH": "2020-08-23 14:00:01.999872", "MEAN_MOTION": 15.62768501, "ECCENTRICITY": 0.0008613, "INCLINATION": 52.9996, "RA_OF_ASC_NODE": 211.4039, "ARG_OF_PERICENTER": 295.3462, "MEAN_ANOMALY": 300.4666, "EPHEMERIS_TYPE": 0, "CLASSIFICATION_TYPE": "U", "NORAD_CAT_ID": 46049, "ELEMENT_SET_NO": 999, "REV_AT_EPOCH": 330, "BSTAR": -0.00029487, "MEAN_MOTION_DOT": -0.00027521, "MEAN_MOTION_DDOT": 0, "SEMIMAJOR_AXIS": 6757.801, "PERIOD": 92.144, "APOAPSIS": 385.486, "PERIAPSIS": 373.845, "OBJECT_TYPE": "PAYLOAD", "RCS_SIZE": "LARGE", "COUNTRY_CODE": "US", "LAUNCH_DATE": "2020-08-07", "SITE": "AFETR", "DECAY_DATE": null, "DECAYED": 0, "FILE": 2807069, "GP_ID": 159940668, "TLE_LINE0": "0 STARLINK-1530", "TLE_LINE1": "1 46049U 20055Y   20236.58335648 -.00027521  00000-0 -29487-3 0  9992", "TLE_LINE2": "2 46049  52.9996 211.4039 0008613 295.3462 300.4666 15.62768501  3306"}, "version": "v1.0", "launch": "5ed9819a1f30554030d45c29", "longitude": -140.38711341953942, "latitude": -27.82992756511864, "height_km": 382.86304731778364, "velocity_kms": 7.683057010515487, "id": "5f36cb59bd88830006274096"}, {"spaceTrack": {"CCSDS_OMM_VERS": "2.0", "COMMENT": "GENERATED VIA SPACE-TRACK.ORG API", "CREATION_DATE": "2020-08-23 14:56:10", "ORIGINATOR": "18 SPCS", "OBJECT_NAME": "STARLINK-1574", "OBJECT_ID": "2020-055AM", "CENTER_NAME": "EARTH", "REF_FRAME": "TEME", "TIME_SYSTEM": "UTC", "MEAN_ELEMENT_THEORY": "SGP4", "EPOCH": "2020-08-23 14:00:01.999872", "MEAN_MOTION": 15.62809946, "ECCENTRICITY": 0.0007225, "INCLINATION": 52.9996, "RA_OF_ASC_NODE": 211.4233, "ARG_OF_PERICENTER": 299.5676, "MEAN_ANOMALY": 286.0447, "EPHEMERIS_TYPE": 0, "CLASSIFICATION_TYPE": "U", "NORAD_CAT_ID": 46062, "ELEMENT_SET_NO": 999, "REV_AT_EPOCH": 330, "BSTAR": -0.00051888, "MEAN_MOTION_DOT": -0.00047946, "MEAN_MOTION_DDOT": 0, "SEMIMAJOR_AXIS": 6757.681, "PERIOD": 92.141, "APOAPSIS": 384.429, "PERIAPSIS": 374.664, "OBJECT_TYPE": "PAYLOAD", "RCS_SIZE": "LARGE", "COUNTRY_CODE": "US", "LAUNCH_DATE": "2020-08-07", "SITE": "AFETR", "DECAY_DATE": null, "DECAYED": 0, "FILE": 2807089, "GP_ID": 159941336, "TLE_LINE0": "0 STARLINK-1574", "TLE_LINE1": "1 46062U 20055AM  20236.58335648 -.00047946  00000-0 -51888-3 0  9990", "TLE_LINE2": "2 46062  52.9996 211.4233 0007225 299.5676 286.0447 15.62809946  3303"}, "version": "v1.0", "launch": "5ed9819a1f30554030d45c29", "longitude": -148.78860189375257, "latitude": -35.057755032342364, "height_km": 386.0123987465058, "velocity_kms": 7.680910758993829, "id": "5f36cb59bd88830006274098"}, {"spaceTrack": {"CCSDS_OMM_VERS": "2.0", "COMMENT": "GENERATED VIA SPACE-TRACK.ORG API", "CREATION_DATE": "2020-08-23 14:56:10", "ORIGINATOR": "18 SPCS", "OBJECT_NAME": "STARLINK-1577", "OBJECT_ID": "2020-055AN", "CENTER_NAME": "EARTH", "REF_FRAME": "TEME", "TIME_SYSTEM": "UTC", "MEAN_ELEMENT_THEORY": "SGP4", "EPOCH": "2020-08-23 14:00:01.999872", "MEAN_MOTION": 15.6276285, "ECCENTRICITY": 0.0007938, "INCLINATION": 52.9993, "RA_OF_ASC_NODE": 211.4196, "ARG_OF_PERICENTER": 298.1015, "MEAN_ANOMALY": 290.1381, "EPHEMERIS_TYPE": 0, "CLASSIFICATION_TYPE": "U", "NORAD_CAT_ID": 46063, "ELEMENT_SET_NO": 999, "REV_AT_EPOCH": 330, "BSTAR": -0.00029341, "MEAN_MOTION_DOT": -0.00027373, "MEAN_MOTION_DDOT": 0, "SEMIMAJOR_AXIS": 6757.817, "PERIOD": 92.144, "APOAPSIS": 385.046, "PERIAPSIS": 374.318, "OBJECT_TYPE": "PAYLOAD", "RCS_SIZE": "LARGE", "COUNTRY_CODE": "US", "LAUNCH_DATE": "2020-08-07", "SITE": "AFETR", "DECAY_DATE": null, "DECAYED": 0, "FILE": 2807089, "GP_ID": 159940881, "TLE_LINE0": "0 STARLINK-1577", "TLE_LINE1": "1 46063U 20055AN  20236.58335648 -.00027373  00000-0 -29341-3 0  9992", "TLE_LINE2": "2 46063  52.9993 211.4196 0007938 298.1015 290.1381 15.62762850  3307"}, "version": "v1.0", "launch": "5ed9819a1f30554030d45c29", "longitude": -146.5212477321229, "latitude": -33.27096072377854, "height_km": 385.0193271830203, "velocity_kms": 7.681707878232747, "id": "5f36cb59bd88830006274099"}]